{"type":"FeatureCollection","features":[{"type":"Feature","geometry":{"type":"LineString","coordinates":[[81.75829,22.67252],[81.75683,22.67468],[81.75526,22.67613],[81.75196,22.68016],[81.75005,22.6813],[81.7493,22.68192],[81.7472,22.68427],[81.7425,22.68708],[81.73792,22.68908],[81.73726,22.68987],[81.73703,22.69093],[81.73521,22.69186],[81.73364,22.69294],[81.73351,22.69333],[81.73304,22.69387],[81.73303,22.69444],[81.7326,22.69442],[81.73234,22.69479],[81.73181,22.69446],[81.73126,22.6945],[81.7311,22.69552],[81.73005,22.69678],[81.72919,22.69661],[81.72935,22.69684],[81.72927,22.69703],[81.72883,22.69662],[81.72846,22.69659],[81.72839,22.69676],[81.72859,22.69703],[81.72838,22.69709],[81.72757,22.69664],[81.7272,22.69679],[81.72605,22.69813],[81.7258,22.6981],[81.72566,22.69755],[81.72547,22.69743],[81.72518,22.69839],[81.72469,22.69849],[81.72404,22.69936],[81.72289,22.70002],[81.72268,22.70002],[81.722,22.69922],[81.7206,22.69942],[81.71969,22.69925],[81.71941,22.69935],[81.71829,22.70059],[81.71734,22.70069],[81.71598,22.7012],[81.71516,22.70117],[81.7149,22.70059],[81.7147,22.70052],[81.714,22.70059],[81.71273,22.70222],[81.71221,22.70208],[81.7121,22.70185],[81.71271,22.70091],[81.71264,22.70045],[81.71214,22.70026],[81.71142,22.69936],[81.71099,22.69917],[81.71037,22.69915],[81.70991,22.69948],[81.70949,22.70085],[81.70916,22.70123],[81.70849,22.70127],[81.70703,22.70047],[81.70604,22.70058],[81.70285,22.70242],[81.70175,22.70239],[81.70074,22.70326],[81.69996,22.70354],[81.69921,22.70359],[81.69858,22.70429],[81.69807,22.70436],[81.69639,22.70397],[81.69337,22.70613],[81.69311,22.70819],[81.6926,22.70861],[81.69237,22.70918],[81.69228,22.71195],[81.69312,22.71297],[81.69344,22.71467],[81.69421,22.7149],[81.69493,22.71606],[81.69565,22.7164],[81.69611,22.71696],[81.69665,22.71724],[81.69671,22.71764],[81.69603,22.718],[81.69605,22.71834],[81.69765,22.72033],[81.69854,22.72195],[81.6989,22.72336],[81.69828,22.72492],[81.6983,22.72539],[81.69904,22.72656],[81.69989,22.72596],[81.70027,22.72597],[81.70058,22.72622],[81.70064,22.72662],[81.70033,22.72778],[81.70127,22.72826],[81.70157,22.72956],[81.70088,22.7307],[81.7009,22.73111],[81.70395,22.73506],[81.7039,22.73523],[81.70258,22.73544],[81.70234,22.73569],[81.70212,22.73648],[81.70139,22.73693],[81.70261,22.73897],[81.70294,22.7391],[81.7036,22.73905],[81.70371,22.74068],[81.7034,22.74147],[81.70417,22.74187],[81.70419,22.74295],[81.70401,22.74333],[81.70341,22.74331],[81.70321,22.74364],[81.70331,22.74379],[81.70404,22.74395],[81.70424,22.74436],[81.70408,22.74465],[81.70336,22.74491],[81.70274,22.74542],[81.70292,22.74603],[81.7028,22.74629],[81.7012,22.74658],[81.70093,22.74728],[81.70014,22.74749],[81.70015,22.7479],[81.70077,22.74813],[81.70088,22.74837],[81.69994,22.74924],[81.69995,22.74947],[81.70053,22.7498],[81.70047,22.75035],[81.69975,22.75088],[81.69898,22.75007],[81.69867,22.75008],[81.69884,22.75155],[81.69845,22.75277],[81.69859,22.75291],[81.69923,22.75283],[81.69966,22.75308],[81.69986,22.75346],[81.69957,22.75426],[81.69919,22.75462],[81.69899,22.75461],[81.69878,22.75434],[81.69878,22.75395],[81.69849,22.75386],[81.69761,22.75423],[81.69654,22.75445],[81.69643,22.75473],[81.69661,22.75599],[81.69633,22.75622],[81.69585,22.75616],[81.69566,22.75629],[81.69539,22.75763],[81.69556,22.75824],[81.69584,22.75825],[81.69625,22.758],[81.69715,22.75706],[81.69781,22.75715],[81.69783,22.75753],[81.69682,22.75863],[81.69678,22.75894],[81.6973,22.75924],[81.69833,22.75906],[81.6984,22.75927],[81.69809,22.75987],[81.69738,22.76015],[81.69718,22.76038],[81.69729,22.76053],[81.69793,22.76054],[81.69819,22.76071],[81.69836,22.76101],[81.69829,22.76142],[81.69806,22.76149],[81.6973,22.76111],[81.69666,22.7611],[81.69644,22.76151],[81.69668,22.76237],[81.69627,22.76268],[81.69423,22.76236],[81.69362,22.7635],[81.69293,22.76431],[81.69213,22.76477],[81.69204,22.76502],[81.69214,22.76542],[81.69235,22.76549],[81.6936,22.76512],[81.69459,22.76614],[81.69452,22.76684],[81.69347,22.76726],[81.69331,22.76752],[81.69347,22.76781],[81.69407,22.76791],[81.69439,22.7682],[81.69435,22.7685],[81.69336,22.7696],[81.69339,22.77071],[81.69302,22.77231],[81.69318,22.77265],[81.69447,22.77362],[81.69454,22.77397],[81.69441,22.77422],[81.69408,22.77431],[81.69298,22.77418],[81.69266,22.77457],[81.69395,22.77517],[81.69404,22.77548],[81.69391,22.77605],[81.69343,22.77644],[81.69279,22.77661],[81.69227,22.77717],[81.6921,22.7778],[81.69207,22.77908],[81.69135,22.77984],[81.69027,22.78032],[81.68952,22.78046],[81.68931,22.78023],[81.68995,22.77922],[81.68979,22.77901],[81.68916,22.77905],[81.68857,22.78],[81.68756,22.7803],[81.68703,22.78082],[81.68631,22.78105],[81.6852,22.78198],[81.68504,22.78297],[81.68454,22.78339],[81.68394,22.78341],[81.68356,22.78323],[81.68251,22.78236],[81.68276,22.78207],[81.68367,22.78205],[81.68381,22.78194],[81.68382,22.78156],[81.68315,22.78127],[81.68221,22.78113],[81.68189,22.7813],[81.68179,22.78198],[81.6815,22.78225],[81.68111,22.78226],[81.68043,22.78191],[81.68005,22.78204],[81.67996,22.78239],[81.68012,22.78302],[81.6799,22.7834],[81.67792,22.78296],[81.67533,22.78407],[81.67487,22.78398],[81.67314,22.78284],[81.6726,22.78291],[81.67136,22.78344],[81.67019,22.78365],[81.66962,22.78412],[81.6681,22.78432],[81.66738,22.78384],[81.667,22.78391],[81.66635,22.7847],[81.66581,22.78495],[81.66517,22.78469],[81.66513,22.78332],[81.66485,22.78304],[81.66423,22.7831],[81.66361,22.78346],[81.66224,22.78332],[81.66137,22.7839],[81.66012,22.78356],[81.65951,22.78367],[81.65822,22.78427],[81.65782,22.7848],[81.65729,22.78624],[81.65732,22.78678],[81.65773,22.78768],[81.65745,22.7882],[81.65659,22.78798],[81.65578,22.78671],[81.65474,22.78687],[81.65301,22.78661],[81.65255,22.78715],[81.65228,22.78723],[81.65161,22.78617],[81.65124,22.78599],[81.65089,22.78603],[81.65084,22.78702],[81.65048,22.78752],[81.65024,22.78748],[81.64972,22.78699],[81.64892,22.78671],[81.64851,22.78753],[81.64806,22.78778],[81.6479,22.78778],[81.64712,22.78704],[81.64579,22.78679],[81.6452,22.78683],[81.6446,22.78739],[81.64422,22.78748],[81.64397,22.78666],[81.64352,22.78626],[81.6433,22.78633],[81.64299,22.78677],[81.64259,22.78775],[81.64203,22.78795],[81.64092,22.78711],[81.64058,22.78638],[81.64005,22.78602],[81.63912,22.78598],[81.63867,22.78649],[81.63841,22.78653],[81.63732,22.7861],[81.63702,22.78559],[81.63727,22.78463],[81.6372,22.78421],[81.63564,22.78356],[81.63545,22.78229],[81.63512,22.78224],[81.63396,22.78265],[81.63364,22.78252],[81.63428,22.78119],[81.63413,22.78048],[81.63211,22.78064],[81.63109,22.78121],[81.63072,22.78114],[81.63072,22.78166],[81.63057,22.78186],[81.62996,22.7816],[81.62901,22.78172],[81.62801,22.78023],[81.62754,22.77993],[81.62725,22.77797],[81.62655,22.77733],[81.62575,22.77725],[81.62542,22.77767],[81.62537,22.77833],[81.62511,22.77873],[81.62467,22.779],[81.62447,22.77896],[81.62413,22.77819],[81.62414,22.77682],[81.62551,22.77455],[81.62545,22.77407],[81.62413,22.77383],[81.62365,22.77359],[81.62315,22.77372],[81.62205,22.77323],[81.62138,22.77315],[81.62124,22.77213],[81.62097,22.77177],[81.62013,22.77205],[81.61959,22.77332],[81.61895,22.77344],[81.61876,22.77327],[81.61866,22.772],[81.61835,22.77147],[81.61841,22.77083],[81.61807,22.77057],[81.61711,22.77047],[81.61696,22.77061],[81.61687,22.77192],[81.61604,22.77221],[81.61534,22.77225],[81.61472,22.77203],[81.61473,22.77154],[81.61445,22.77099],[81.6148,22.77044],[81.61481,22.77009],[81.61464,22.76994],[81.6129,22.77054],[81.61265,22.77027],[81.61261,22.76929],[81.61223,22.76908],[81.61186,22.76921],[81.61157,22.76977],[81.61014,22.77016],[81.60925,22.76909],[81.60897,22.76819],[81.6083,22.76815],[81.60742,22.76854],[81.60699,22.76847],[81.60676,22.76798],[81.60689,22.76691],[81.60676,22.76672],[81.60596,22.76668],[81.60565,22.76615],[81.60634,22.76496],[81.60641,22.76359],[81.60615,22.76341],[81.60569,22.76348],[81.60521,22.76412],[81.6047,22.76422],[81.60433,22.76419],[81.60376,22.76379],[81.60304,22.76392],[81.60251,22.76348],[81.60234,22.76259],[81.60214,22.76238],[81.6012,22.76236],[81.60059,22.76208],[81.60043,22.76089],[81.60004,22.76055],[81.59952,22.76033],[81.59821,22.76051],[81.59718,22.76037],[81.59664,22.75974],[81.5965,22.75873],[81.59575,22.75755],[81.59453,22.75784],[81.59414,22.75785],[81.59394,22.75762],[81.59392,22.75726],[81.59437,22.75645],[81.59442,22.75598],[81.5943,22.75505],[81.59388,22.75469],[81.59195,22.75478],[81.59157,22.75495],[81.5914,22.75581],[81.59119,22.75604],[81.58799,22.75775],[81.58799,22.75889],[81.58754,22.75935],[81.58715,22.75923],[81.58671,22.75874],[81.58535,22.75855],[81.58514,22.75831],[81.58497,22.75765],[81.58439,22.75714],[81.58388,22.75624],[81.58347,22.75606],[81.58272,22.75605],[81.5821,22.75628],[81.5817,22.75681],[81.58175,22.75721],[81.58153,22.75779],[81.58097,22.75841],[81.58061,22.75819],[81.58017,22.75748],[81.57989,22.75655],[81.57961,22.75635],[81.57926,22.7564],[81.57889,22.75688],[81.57837,22.75692],[81.57832,22.75589],[81.57815,22.75558],[81.57773,22.7553],[81.5774,22.75464],[81.57563,22.75495],[81.5754,22.75575],[81.57514,22.75606],[81.57483,22.75612],[81.57357,22.75583],[81.57327,22.75527],[81.57295,22.75523],[81.5724,22.75592],[81.57173,22.75588],[81.57073,22.75616],[81.57021,22.75593],[81.56966,22.75517],[81.56769,22.75414],[81.56723,22.75407],[81.56508,22.75481],[81.56435,22.75539],[81.56401,22.75653],[81.56348,22.75735],[81.56349,22.75775],[81.56382,22.75854],[81.56373,22.75903],[81.56336,22.7598],[81.56268,22.76044],[81.56217,22.76063],[81.56142,22.76066],[81.56073,22.7605],[81.55915,22.76068],[81.55837,22.7605],[81.55696,22.7598],[81.55669,22.75982],[81.55507,22.76112],[81.5544,22.76137],[81.55335,22.76141],[81.55243,22.76108],[81.55179,22.76014],[81.55053,22.75933],[81.54959,22.75734],[81.54813,22.75658],[81.54834,22.75581],[81.54766,22.75504],[81.54718,22.75475],[81.54629,22.7547],[81.54562,22.75434],[81.54557,22.7525],[81.54472,22.7516],[81.54416,22.75126],[81.54306,22.75146],[81.54117,22.75125],[81.54079,22.75141],[81.54022,22.75181],[81.53942,22.75344],[81.53871,22.75417],[81.53772,22.75414],[81.53647,22.75359],[81.53584,22.75291],[81.53622,22.75081],[81.53618,22.74995],[81.53599,22.74937],[81.53548,22.7487],[81.53564,22.74769],[81.53556,22.74725],[81.53427,22.74658],[81.53351,22.74574],[81.53294,22.74542],[81.53187,22.7454],[81.53165,22.74552],[81.53145,22.74595],[81.53147,22.7468],[81.53123,22.74752],[81.53254,22.751],[81.53261,22.75182],[81.5322,22.75269],[81.53158,22.75282],[81.52899,22.75273],[81.52761,22.75057],[81.52697,22.75001],[81.52624,22.74981],[81.52523,22.7515],[81.52532,22.75338],[81.52487,22.75387],[81.52356,22.7538],[81.52225,22.75334],[81.52165,22.75338],[81.52098,22.75369],[81.52083,22.7542],[81.52079,22.75628],[81.52048,22.75771],[81.52043,22.75896],[81.51946,22.76061],[81.51877,22.76126],[81.51787,22.76166],[81.51714,22.76137],[81.51629,22.76047],[81.51596,22.75897],[81.51551,22.75805],[81.51521,22.75782],[81.51412,22.75773],[81.51384,22.75802],[81.51351,22.75936],[81.51313,22.76013],[81.51321,22.76059],[81.51414,22.76222],[81.51414,22.76281],[81.5136,22.76315],[81.51199,22.76294],[81.51122,22.76307],[81.50977,22.7638],[81.50908,22.76497],[81.50873,22.76523],[81.5072,22.76541],[81.5061,22.76608],[81.5044,22.76589],[81.5033,22.76498],[81.50291,22.76343],[81.50304,22.76172],[81.50266,22.76124],[81.50121,22.76037],[81.50062,22.76016],[81.499,22.76054],[81.49866,22.76109],[81.4978,22.76155],[81.49676,22.7625],[81.49485,22.76207],[81.49383,22.76212],[81.49367,22.76202],[81.49354,22.76147],[81.49354,22.7601],[81.49311,22.7594],[81.49177,22.75872],[81.4911,22.75861],[81.48976,22.75905],[81.48867,22.75994],[81.48683,22.76001],[81.48637,22.76066],[81.48567,22.76114],[81.4847,22.76145],[81.48421,22.7613],[81.48399,22.76024],[81.48371,22.75965],[81.4832,22.75914],[81.4815,22.75881],[81.47925,22.75871],[81.47818,22.75838],[81.47698,22.75854],[81.47601,22.75897],[81.47371,22.76084],[81.47299,22.76099],[81.47074,22.76038],[81.46984,22.76051],[81.46908,22.76112],[81.46843,22.76234],[81.46828,22.76514],[81.46796,22.76603],[81.46729,22.76704],[81.46689,22.76818],[81.46522,22.76984],[81.46477,22.77064],[81.46317,22.77178],[81.46258,22.77199],[81.4615,22.77202],[81.46012,22.77149],[81.45952,22.77094],[81.45934,22.76895],[81.45794,22.76817],[81.4568,22.76912],[81.45359,22.77013],[81.45216,22.77165],[81.45182,22.7727],[81.45233,22.77418],[81.45312,22.7758],[81.45304,22.77689],[81.45035,22.78131],[81.44811,22.78441],[81.44699,22.78569],[81.44599,22.78817],[81.44552,22.78869],[81.44539,22.78914],[81.44544,22.79007],[81.44573,22.79063],[81.44758,22.79107],[81.44876,22.79176],[81.45015,22.79311],[81.45066,22.79382],[81.45074,22.79436],[81.45047,22.79476],[81.44975,22.7952],[81.44859,22.79541],[81.44695,22.79534],[81.44526,22.79596],[81.44339,22.79694],[81.44122,22.79834],[81.44042,22.79902],[81.43969,22.80039],[81.4389,22.80144],[81.43759,22.80241],[81.43638,22.80378],[81.43552,22.80513],[81.43468,22.80596],[81.43439,22.80706],[81.43353,22.80909],[81.43367,22.81003],[81.43709,22.81389],[81.43759,22.81498],[81.43803,22.81727],[81.43793,22.81898],[81.43678,22.82215],[81.43515,22.82421],[81.43206,22.82662],[81.43043,22.82814],[81.43006,22.82867],[81.42996,22.82956],[81.43026,22.83159],[81.43006,22.83355],[81.42982,22.83464],[81.42862,22.83676],[81.42753,22.83776],[81.42445,22.83999],[81.42112,22.84134],[81.4187,22.84281],[81.41743,22.84279],[81.41633,22.843],[81.41054,22.8427],[81.40902,22.843],[81.40781,22.84365],[81.40574,22.84425],[81.405,22.84468],[81.40342,22.84619],[81.40287,22.84701],[81.40269,22.84793],[81.40285,22.84854],[81.40329,22.84907],[81.40469,22.8501],[81.40482,22.85062],[81.40486,22.85122],[81.40442,22.85276],[81.40378,22.85391],[81.40343,22.85405],[81.40206,22.85403],[81.39896,22.85296],[81.39525,22.85219],[81.39441,22.85214],[81.39391,22.85219],[81.3934,22.8525],[81.39174,22.85442],[81.3903,22.85534],[81.3895,22.85558],[81.38693,22.85516],[81.38544,22.85516],[81.38339,22.85546],[81.38141,22.85607],[81.37888,22.85626],[81.37684,22.85588],[81.37501,22.85531],[81.37357,22.85518],[81.37221,22.85577],[81.37063,22.85612],[81.36997,22.85583],[81.36726,22.85282],[81.36591,22.85198],[81.36132,22.85064],[81.35954,22.85069],[81.35838,22.8518],[81.35777,22.85224],[81.35725,22.8524],[81.35554,22.85241],[81.35269,22.85197],[81.3519,22.852],[81.35049,22.85241],[81.35025,22.85267],[81.34933,22.85525],[81.34758,22.85706],[81.3462,22.85765],[81.34528,22.8576],[81.34335,22.85788],[81.34134,22.85844],[81.34043,22.859],[81.33999,22.85955],[81.33657,22.86236],[81.32968,22.86176],[81.3281,22.86186],[81.32637,22.86232],[81.32465,22.86311],[81.3215,22.86592],[81.31968,22.86798],[81.31571,22.87688],[81.31516,22.87751],[81.31424,22.87772],[81.31172,22.877],[81.31108,22.87712],[81.30864,22.87819],[81.30285,22.88128],[81.30101,22.88181],[81.29965,22.88174],[81.29492,22.88021],[81.29296,22.87988],[81.28696,22.87933],[81.27996,22.87971],[81.27833,22.88031],[81.27198,22.88505],[81.26886,22.8878],[81.26593,22.89003],[81.26362,22.89396],[81.26329,22.89481],[81.25934,22.90024],[81.25832,22.90111],[81.25723,22.90167],[81.25622,22.90192],[81.25493,22.90188],[81.25163,22.90149],[81.24505,22.90116],[81.24316,22.90071],[81.24233,22.90067],[81.2406,22.90068],[81.23901,22.90116],[81.23708,22.90218],[81.23505,22.90375],[81.23234,22.90635],[81.2302,22.90774],[81.22792,22.90881],[81.22438,22.91084],[81.22167,22.91164],[81.22033,22.91225],[81.21552,22.9152],[81.21346,22.91582],[81.21154,22.91594],[81.21059,22.91568],[81.20862,22.91442],[81.20721,22.91374],[81.20366,22.91127],[81.20142,22.91101],[81.20037,22.91128],[81.19952,22.91204],[81.19867,22.91346],[81.19858,22.91381],[81.19875,22.91487],[81.19862,22.91592],[81.19502,22.92291],[81.19229,22.92616],[81.19106,22.92821],[81.1909,22.92893],[81.19094,22.9322],[81.1915,22.93368],[81.19252,22.93759],[81.19228,22.94231],[81.19151,22.94388],[81.191,22.9446],[81.18798,22.94633],[81.18568,22.94701],[81.18226,22.94677],[81.17758,22.9453],[81.17467,22.94409],[81.17357,22.9435],[81.17256,22.94267],[81.17178,22.94151],[81.17152,22.94136],[81.16795,22.941],[81.16524,22.94125],[81.16182,22.9412],[81.15946,22.94134],[81.15683,22.94197],[81.15335,22.9422],[81.15148,22.94266],[81.15004,22.9426],[81.14883,22.94275],[81.14651,22.94259],[81.14144,22.94112],[81.13904,22.94089],[81.13495,22.94077],[81.12907,22.9412],[81.12354,22.94185],[81.11961,22.94257],[81.11493,22.94407],[81.11314,22.94496],[81.10712,22.9464],[81.1051,22.94662],[81.10298,22.94659],[81.10126,22.9463],[81.09733,22.94512],[81.09405,22.94523],[81.09309,22.94546],[81.09012,22.94526],[81.08839,22.94492],[81.08511,22.94481],[81.08133,22.94594],[81.0789,22.94692],[81.07647,22.94842],[81.07331,22.95117],[81.07252,22.95244],[81.07023,22.95865],[81.06898,22.96131],[81.06757,22.96361],[81.06695,22.96437],[81.06542,22.9653],[81.06455,22.96617],[81.06308,22.96727],[81.06107,22.96773],[81.05603,22.9679],[81.05372,22.96753],[81.0487,22.96843],[81.04726,22.96845],[81.04558,22.96818],[81.04202,22.96881],[81.03588,22.97046],[81.0324,22.97103],[81.03112,22.97101],[81.03067,22.97091],[81.02985,22.97036],[81.0291,22.96873],[81.02694,22.96193],[81.02665,22.95689],[81.02671,22.95424],[81.02647,22.95205],[81.02612,22.95083],[81.02389,22.9459],[81.02389,22.94489],[81.02324,22.9429],[81.02332,22.94191],[81.02377,22.941],[81.02603,22.93822],[81.02633,22.93757],[81.02695,22.93545],[81.0278,22.93396],[81.02773,22.93329],[81.02595,22.93119],[81.02498,22.93039],[81.02378,22.9298],[81.02141,22.92967],[81.00858,22.93094],[81.00455,22.93094],[81.00186,22.93055],[81.00101,22.93011],[81.00001,22.92988],[80.99734,22.92779],[80.99594,22.92701],[80.99479,22.92664],[80.99267,22.92658],[80.99138,22.92698],[80.98732,22.92895],[80.98517,22.93045],[80.98037,22.93889],[80.97972,22.9397],[80.97781,22.941],[80.97636,22.94118],[80.97378,22.94086],[80.96627,22.93848],[80.96247,22.93743],[80.95937,22.93708],[80.95796,22.93664],[80.9555,22.93727],[80.95394,22.93791],[80.94421,22.94318],[80.94167,22.94413],[80.93882,22.94409],[80.93471,22.94343],[80.93141,22.94372],[80.92906,22.94471],[80.92806,22.94571],[80.92514,22.95059],[80.92223,22.95453],[80.9203,22.95625],[80.91896,22.95701],[80.91563,22.95795],[80.91415,22.95802],[80.91041,22.95783],[80.90793,22.95726],[80.90655,22.95649],[80.90349,22.95317],[80.9021,22.95087],[80.90174,22.94961],[80.90167,22.94736],[80.90222,22.94496],[80.90251,22.94173],[80.90103,22.93898],[80.89952,22.93717],[80.89811,22.93617],[80.89657,22.93593],[80.89295,22.93637],[80.89145,22.93684],[80.88881,22.93909],[80.88814,22.9402],[80.88762,22.94185],[80.88747,22.94406],[80.88772,22.94493],[80.88932,22.94824],[80.89143,22.95095],[80.89662,22.95877],[80.89857,22.96199],[80.89519,22.97897],[80.89507,22.98031],[80.89541,22.98218],[80.89697,22.98482],[80.89729,22.9859],[80.89984,22.98928],[80.90198,22.99487],[80.90207,22.99663],[80.90124,22.99886],[80.90122,23.00434],[80.90193,23.00622],[80.90328,23.00837],[80.90474,23.01112],[80.90502,23.01268],[80.90482,23.01417],[80.90445,23.01467],[80.90308,23.01572],[80.90188,23.01614],[80.90062,23.01614],[80.898,23.01573],[80.89533,23.01499],[80.89331,23.0142],[80.89114,23.01384],[80.88848,23.01387],[80.88728,23.01425],[80.88656,23.01466],[80.88531,23.01562],[80.88272,23.01705],[80.8803,23.01966],[80.87903,23.02071],[80.87808,23.02191],[80.87561,23.02289],[80.8748,23.02403],[80.87371,23.02488],[80.87292,23.02647],[80.8727,23.02727],[80.87271,23.02853],[80.87243,23.02916],[80.87238,23.02982],[80.87071,23.03396],[80.8704,23.0354],[80.86915,23.03709],[80.86803,23.03835],[80.8666,23.03958],[80.86347,23.0434],[80.86193,23.04497],[80.85929,23.04674],[80.85878,23.04737],[80.85751,23.04756],[80.85674,23.04803],[80.85669,23.0484],[80.85639,23.04869],[80.85403,23.04975],[80.85271,23.05004],[80.84913,23.05209],[80.84802,23.05255],[80.84256,23.05411],[80.8374,23.05598],[80.83427,23.05675],[80.82983,23.059],[80.82745,23.05959],[80.82406,23.05966],[80.82259,23.05949],[80.82153,23.05912],[80.82033,23.05841],[80.81991,23.05794],[80.81925,23.05647],[80.81906,23.0547],[80.81938,23.05239],[80.8201,23.05011],[80.82219,23.04699],[80.82261,23.04648],[80.82368,23.04603],[80.82492,23.04417],[80.82458,23.04302],[80.82427,23.04056],[80.82294,23.03681],[80.82299,23.03372],[80.82221,23.03273],[80.8222,23.03242],[80.82264,23.03127],[80.82373,23.02967],[80.82527,23.02648],[80.8265,23.02201],[80.82662,23.02068],[80.82651,23.02005],[80.82589,23.01922],[80.82514,23.0187],[80.82297,23.01796],[80.82119,23.01781],[80.81932,23.01811],[80.8173,23.01888],[80.81178,23.02173],[80.81076,23.02201],[80.8092,23.02202],[80.80833,23.02191],[80.8076,23.02138],[80.80625,23.02088],[80.80565,23.02047],[80.80493,23.01962],[80.80457,23.01895],[80.80421,23.01711],[80.80425,23.01619],[80.80453,23.01513],[80.80534,23.01315],[80.80744,23.00949],[80.80953,23.00358],[80.81106,23.0007],[80.81124,22.99936],[80.81102,22.99866],[80.81094,22.99765],[80.81026,22.99592],[80.81006,22.99416],[80.80959,22.99297],[80.80683,22.98925],[80.80632,22.98887],[80.80531,22.98849],[80.80362,22.98801],[80.80248,22.98807],[80.80103,22.98856],[80.79947,22.98936],[80.79885,22.98989],[80.79607,22.99399],[80.79504,22.99612],[80.79503,22.99696],[80.79533,22.99766],[80.79509,22.99855],[80.79501,23.00097],[80.79373,23.00219],[80.79317,23.00246],[80.79097,23.00496],[80.78941,23.00581],[80.78502,23.00994],[80.78419,23.01096],[80.78371,23.0119],[80.78276,23.01279],[80.78045,23.01722],[80.7777,23.02426],[80.77649,23.02628],[80.77511,23.02814],[80.77416,23.02885],[80.7724,23.02975],[80.77131,23.03012],[80.7702,23.03007],[80.76949,23.02988],[80.7685,23.02922],[80.7683,23.02897],[80.768,23.02784],[80.76674,23.0267],[80.76607,23.02655],[80.7659,23.02633],[80.76554,23.02398],[80.76483,23.02176],[80.76486,23.02045],[80.76523,23.01905],[80.76611,23.01773],[80.76677,23.01637],[80.76715,23.015],[80.76715,23.01425],[80.76684,23.01186],[80.76642,23.01116],[80.76637,23.00915],[80.76514,23.00601],[80.76358,23.00346],[80.7627,23.00246],[80.75628,22.99885],[80.74917,22.99715],[80.7479,22.99709],[80.746,22.99807],[80.74396,22.9984],[80.7418,22.99914],[80.74112,22.99956],[80.73821,23.00247],[80.73729,23.00477],[80.7372,23.00534],[80.73696,23.00563],[80.73539,23.00635],[80.73386,23.0063],[80.73275,23.00694],[80.73218,23.00709],[80.72926,23.0073],[80.72782,23.00716],[80.72647,23.00666],[80.72435,23.0064],[80.71962,23.00455],[80.71547,23.00476],[80.71284,23.00461],[80.70694,23.00329],[80.70494,23.00261],[80.70376,23.00173],[80.70341,23.00129],[80.70214,23.00101],[80.70127,23.00064],[80.6993,23.0004],[80.6986,23.00051],[80.69717,23.00152],[80.69491,23.00142],[80.69246,23.00208],[80.69089,23.00291],[80.68949,23.00338],[80.68716,23.00399],[80.68413,23.00425],[80.68349,23.0046],[80.68296,23.00462],[80.68107,23.00358],[80.6801,23.00209],[80.67986,23.00091],[80.67956,22.99634],[80.67884,22.99023],[80.67797,22.98802],[80.6768,22.98721],[80.67608,22.9871],[80.6751,22.98745],[80.67297,22.98911],[80.67129,22.99143],[80.66798,22.99819],[80.66644,22.99953],[80.66557,23.00003],[80.66365,23.00193],[80.66101,23.00321],[80.65855,23.00368],[80.65738,23.0037],[80.65613,23.00312],[80.65452,23.00315],[80.6532,23.00257],[80.65171,23.00137],[80.65087,23.001],[80.64976,23.00004],[80.64675,22.99683],[80.64633,22.99583],[80.6458,22.99097],[80.64654,22.98947],[80.64816,22.98843],[80.64859,22.98703],[80.6489,22.98514],[80.64966,22.98267],[80.65026,22.98168],[80.651,22.98118],[80.65423,22.97987],[80.65554,22.97903],[80.65668,22.97814],[80.65977,22.97488],[80.66015,22.97328],[80.65985,22.97181],[80.65928,22.97038],[80.65822,22.96869],[80.65509,22.96524],[80.65342,22.96416],[80.65182,22.96364],[80.65069,22.96357],[80.6503,22.96368],[80.64966,22.96442],[80.64952,22.96601],[80.64852,22.96793],[80.64291,22.97351],[80.64125,22.97562],[80.63976,22.97628],[80.63375,22.97775],[80.63139,22.97802],[80.6302,22.97748],[80.62971,22.977],[80.62813,22.97463],[80.62809,22.97389],[80.62848,22.97277],[80.62766,22.96971],[80.62766,22.96898],[80.62813,22.96799],[80.62956,22.96606],[80.63135,22.96263],[80.63139,22.96065],[80.63292,22.95725],[80.63339,22.95559],[80.63364,22.95362],[80.63347,22.95286],[80.63311,22.95241],[80.62967,22.94917],[80.62866,22.94907],[80.62712,22.94988],[80.62519,22.95022],[80.62204,22.95204],[80.62176,22.95233],[80.62099,22.95341],[80.61995,22.95611],[80.61936,22.95966],[80.61869,22.96201],[80.61851,22.96343],[80.61726,22.96596],[80.61598,22.96744],[80.61425,22.96855],[80.61227,22.96935],[80.60984,22.96995],[80.6077,22.97027],[80.60574,22.97016],[80.60442,22.96982],[80.60318,22.96901],[80.59595,22.96312],[80.59412,22.96017],[80.59282,22.96006],[80.59219,22.96033],[80.58998,22.96059],[80.58947,22.96093],[80.58845,22.96181],[80.58759,22.96343],[80.58762,22.96541],[80.58795,22.96602],[80.58871,22.96668],[80.59075,22.96781],[80.59416,22.96936],[80.59473,22.97006],[80.59506,22.97082],[80.59452,22.97378],[80.59456,22.9768],[80.59434,22.97747],[80.59353,22.97887],[80.59223,22.98036],[80.58749,22.98264],[80.58587,22.98307],[80.58267,22.98265],[80.58073,22.98206],[80.57885,22.98099],[80.57744,22.97968],[80.576,22.97738],[80.57636,22.97427],[80.57575,22.97163],[80.57462,22.9695],[80.57241,22.96286],[80.57142,22.96127],[80.56803,22.95852],[80.56661,22.95714],[80.56561,22.95644],[80.56485,22.95638],[80.56253,22.95661],[80.56107,22.95699],[80.55441,22.95947],[80.553,22.96026],[80.54953,22.96364],[80.54805,22.96423],[80.54609,22.96424],[80.54518,22.96394],[80.54442,22.96322],[80.54185,22.95935],[80.54049,22.95594],[80.54014,22.9539],[80.54031,22.95125],[80.54016,22.94685],[80.53953,22.94564],[80.53862,22.945],[80.53784,22.94467],[80.53532,22.94409],[80.53316,22.94413],[80.53257,22.94424],[80.5293,22.94556],[80.52351,22.94868],[80.52179,22.95083],[80.52095,22.95163],[80.51784,22.95417],[80.51748,22.95426],[80.51657,22.95429],[80.51529,22.9539],[80.51412,22.95303],[80.51118,22.9502],[80.50931,22.94765],[80.50939,22.94647],[80.5105,22.94459],[80.5133,22.94181],[80.51515,22.94055],[80.51886,22.93861],[80.52007,22.93817],[80.52464,22.93727],[80.52797,22.9374],[80.52916,22.93703],[80.53084,22.93607],[80.53303,22.93447],[80.53645,22.93028],[80.53758,22.92778],[80.53878,22.92404],[80.53955,22.92231],[80.53984,22.9196],[80.5404,22.91752],[80.54052,22.91645],[80.54037,22.9129],[80.5397,22.9059],[80.53962,22.90341],[80.53976,22.90211],[80.53944,22.90056],[80.53912,22.90008],[80.53742,22.89893],[80.53578,22.89727],[80.53482,22.89599],[80.53352,22.89235],[80.53024,22.8845],[80.53002,22.88316],[80.52966,22.88226],[80.5285,22.88071],[80.52762,22.87875],[80.52659,22.87488],[80.5261,22.87403],[80.52527,22.87314],[80.52263,22.87093],[80.52109,22.87008],[80.51794,22.86919],[80.51249,22.86658],[80.5108,22.86598],[80.50749,22.86504],[80.5064,22.86488],[80.50159,22.86476],[80.4995,22.86444],[80.49855,22.86355],[80.49767,22.86196],[80.49683,22.8613],[80.49516,22.86087],[80.49429,22.85997],[80.49352,22.85862],[80.49233,22.8572],[80.4918,22.85544],[80.49061,22.85444],[80.48657,22.84992],[80.48532,22.848],[80.48468,22.84732],[80.48042,22.84531],[80.47618,22.84358],[80.47415,22.84196],[80.47102,22.84041],[80.46951,22.83936],[80.46901,22.83884],[80.46797,22.8371],[80.46782,22.83622],[80.4686,22.83188],[80.46903,22.83133],[80.47114,22.82985],[80.47242,22.82938],[80.47709,22.82949],[80.4781,22.82977],[80.4792,22.83034],[80.48025,22.83044],[80.4836,22.82874],[80.48554,22.82802],[80.48668,22.82735],[80.48832,22.82517],[80.49044,22.82339],[80.49239,22.81912],[80.49274,22.81673],[80.49469,22.81427],[80.49567,22.81255],[80.49599,22.81161],[80.4961,22.80988],[80.49598,22.80864],[80.49543,22.80614],[80.4954,22.8053],[80.49564,22.80402],[80.49656,22.80298],[80.49771,22.80256],[80.50152,22.80217],[80.50204,22.80226],[80.50475,22.80365],[80.50543,22.80383],[80.50737,22.80377],[80.50907,22.80399],[80.51086,22.80327],[80.5151,22.80242],[80.51583,22.80213],[80.51632,22.80176],[80.51726,22.80049],[80.51941,22.79849],[80.5197,22.79775],[80.51937,22.79648],[80.51736,22.79364],[80.51617,22.79272],[80.51533,22.79231],[80.51302,22.79033],[80.51015,22.78849],[80.50969,22.78804],[80.50905,22.78686],[80.50804,22.78571],[80.50521,22.78422],[80.50399,22.78276],[80.50377,22.78177],[80.50377,22.77935],[80.50528,22.77341],[80.50679,22.7699],[80.507,22.76906],[80.50683,22.76801],[80.50632,22.76698],[80.50491,22.76237],[80.50407,22.7609],[80.50346,22.76051],[80.5018,22.76012],[80.49954,22.75931],[80.49647,22.75885],[80.49189,22.75777],[80.48967,22.75676],[80.48751,22.75526],[80.48658,22.75381],[80.4864,22.75109],[80.48582,22.74856],[80.48578,22.74679],[80.48596,22.74559],[80.48828,22.74297],[80.49204,22.73962],[80.49287,22.73915],[80.49385,22.73885],[80.49644,22.73841],[80.49932,22.73826],[80.50069,22.73845],[80.50208,22.73909],[80.50539,22.74189],[80.50615,22.74204],[80.50753,22.74181],[80.50906,22.74122],[80.51006,22.74067],[80.51074,22.74004],[80.51474,22.73328],[80.51649,22.72964],[80.51868,22.72435],[80.51866,22.72359],[80.51807,22.72093],[80.51804,22.71963],[80.51806,22.7189],[80.51883,22.717],[80.51886,22.71658],[80.51854,22.71249],[80.51782,22.7115],[80.5164,22.71001],[80.5121,22.70662],[80.51135,22.70575],[80.50927,22.70474],[80.5064,22.70366],[80.5049,22.70275],[80.50346,22.70125],[80.50309,22.70066],[80.50177,22.69685],[80.50188,22.6962],[80.50234,22.69519],[80.50212,22.69225],[80.50252,22.68982],[80.50235,22.68763],[80.50203,22.68589],[80.50124,22.68436],[80.49876,22.68192],[80.49676,22.67927],[80.49629,22.67842],[80.49481,22.67747],[80.49115,22.67584],[80.48843,22.67494],[80.48511,22.6741],[80.48175,22.67395],[80.47986,22.67419],[80.47615,22.67417],[80.47554,22.67394],[80.47435,22.67315],[80.4735,22.67178],[80.47357,22.67076],[80.47394,22.66991],[80.47474,22.66871],[80.47524,22.66844],[80.47861,22.66822],[80.47946,22.66802],[80.48024,22.66756],[80.48089,22.66693],[80.48422,22.6629],[80.48691,22.65788],[80.48752,22.65702],[80.48858,22.65683],[80.49326,22.65743],[80.497,22.65981],[80.4985,22.66024],[80.50065,22.66039],[80.50184,22.66008],[80.50279,22.65936],[80.50634,22.65596],[80.50705,22.65499],[80.5075,22.65362],[80.50736,22.65244],[80.50682,22.6517],[80.50246,22.64843],[80.50171,22.64763],[80.50086,22.64613],[80.50081,22.64534],[80.50095,22.64387],[80.50229,22.64116],[80.50371,22.63776],[80.50396,22.6366],[80.50396,22.63513],[80.50344,22.63208],[80.50337,22.63042],[80.50353,22.62622],[80.50394,22.62548],[80.50505,22.62501],[80.50773,22.62239],[80.50859,22.62087],[80.50989,22.61935],[80.51002,22.61853],[80.50989,22.61772],[80.50882,22.61652],[80.50793,22.61518],[80.50568,22.61325],[80.5049,22.61275],[80.50307,22.61207],[80.50149,22.61181],[80.50001,22.6119],[80.49863,22.61225],[80.49641,22.61358],[80.49499,22.6149],[80.49386,22.61564],[80.4932,22.61585],[80.49198,22.61581],[80.49117,22.6156],[80.48615,22.61237],[80.48441,22.61091],[80.48208,22.60851],[80.47906,22.60316],[80.4762,22.59892],[80.47445,22.58836],[80.47419,22.58796],[80.47381,22.58774],[80.47316,22.5875],[80.46959,22.58709],[80.468,22.5871],[80.4667,22.58739],[80.46193,22.58963],[80.45914,22.59151],[80.4573,22.59239],[80.45604,22.59235],[80.45177,22.59097],[80.44976,22.58888],[80.44955,22.58817],[80.44968,22.58741],[80.44997,22.58702],[80.45297,22.58577],[80.45632,22.5828],[80.45689,22.58199],[80.45793,22.57975],[80.45805,22.57782],[80.45704,22.57559],[80.45611,22.57464],[80.45297,22.57446],[80.4521,22.57462],[80.45142,22.57558],[80.4507,22.57813],[80.45023,22.57873],[80.44979,22.5791],[80.44873,22.5796],[80.44727,22.57977],[80.44613,22.57943],[80.44453,22.5784],[80.44249,22.5767],[80.4367,22.57258],[80.43128,22.56979],[80.42773,22.56809],[80.42548,22.56722],[80.4219,22.5664],[80.41924,22.56631],[80.41707,22.5671],[80.41625,22.56771],[80.41292,22.57251],[80.41007,22.57798],[80.40906,22.57961],[80.40683,22.5821],[80.40598,22.5826],[80.40533,22.58272],[80.39975,22.58264],[80.39593,22.58319],[80.3935,22.58427],[80.39265,22.58488],[80.39139,22.58641],[80.39113,22.58706],[80.39078,22.58924],[80.39067,22.59135],[80.39028,22.59285],[80.38984,22.5936],[80.38864,22.59491],[80.38689,22.59625],[80.38509,22.59698],[80.38181,22.5978],[80.38044,22.59786],[80.37858,22.59761],[80.3775,22.5972],[80.37669,22.59661],[80.37537,22.59519],[80.37375,22.59235],[80.37227,22.58849],[80.37098,22.58637],[80.37005,22.58581],[80.36958,22.58571],[80.3684,22.58587],[80.36747,22.58673],[80.36675,22.58837],[80.36661,22.59056],[80.36578,22.59398],[80.36233,22.6001],[80.36215,22.60062],[80.3621,22.604],[80.36179,22.60439],[80.36056,22.605],[80.35945,22.60596],[80.3594,22.60638],[80.35953,22.60663],[80.36094,22.60759],[80.36109,22.60786],[80.361,22.60848],[80.36039,22.60971],[80.35948,22.61056],[80.35819,22.61128],[80.3565,22.6116],[80.35312,22.61136],[80.35169,22.61159],[80.34988,22.61346],[80.34464,22.61713],[80.34372,22.61913],[80.34335,22.61943],[80.34208,22.61956],[80.33873,22.61874],[80.33717,22.61873],[80.33653,22.61915],[80.33622,22.62014],[80.33618,22.6208],[80.33628,22.62121],[80.33698,22.62205],[80.3372,22.62261],[80.33702,22.62382],[80.33651,22.62433],[80.33507,22.62442],[80.33443,22.62466],[80.33362,22.62662],[80.33362,22.62733],[80.33381,22.62789],[80.33424,22.62822],[80.33511,22.62842],[80.33533,22.62881],[80.33541,22.63155],[80.33574,22.63407],[80.33564,22.6346],[80.33491,22.63559],[80.33313,22.63694],[80.33217,22.63827],[80.33199,22.63892],[80.33178,22.64337],[80.33142,22.64688],[80.33119,22.6483],[80.3307,22.64954],[80.32967,22.65074],[80.32841,22.65146],[80.32166,22.65302],[80.31879,22.65462],[80.31697,22.65618],[80.31619,22.65756],[80.3159,22.65916],[80.3159,22.66152],[80.31667,22.66508],[80.31974,22.67616],[80.3228,22.68203],[80.32589,22.68582],[80.32819,22.68895],[80.33051,22.69331],[80.33141,22.69562],[80.33182,22.69817],[80.33184,22.70038],[80.33145,22.70314],[80.32883,22.71239],[80.32572,22.71933],[80.32365,22.72256],[80.32153,22.72432],[80.31808,22.72631],[80.31568,22.72748],[80.31356,22.72799],[80.31167,22.72803],[80.31009,22.72779],[80.3059,22.72629],[80.29907,22.72272],[80.29644,22.72235],[80.29258,22.72291],[80.28942,22.72454],[80.28577,22.72803],[80.28496,22.72948],[80.2845,22.73096],[80.28343,22.75135],[80.2827,22.75464],[80.27922,22.75977],[80.27845,22.76327],[80.2784,22.76608],[80.27905,22.76962],[80.28114,22.77773],[80.28158,22.78086],[80.28129,22.78443],[80.28083,22.78601],[80.28027,22.7872],[80.27913,22.78851],[80.27801,22.78912],[80.27302,22.79065],[80.2694,22.79209],[80.2669,22.79279],[80.25826,22.79588],[80.25559,22.7963],[80.23998,22.79647],[80.23511,22.79744],[80.22792,22.79943],[80.22096,22.80007],[80.21833,22.80002],[80.21323,22.79917],[80.20978,22.79824],[80.20907,22.79779],[80.20809,22.79686],[80.20671,22.79484],[80.20619,22.79325],[80.20601,22.7843],[80.20575,22.78137],[80.20533,22.77974],[80.20422,22.7778],[80.20312,22.77692],[80.20148,22.77612],[80.19863,22.7759],[80.19184,22.77447],[80.1896,22.7731],[80.18785,22.77109],[80.18454,22.76679],[80.18325,22.76561],[80.18222,22.76493],[80.18123,22.76455],[80.1781,22.76451],[80.17074,22.76621],[80.16776,22.7667],[80.16106,22.76682],[80.15461,22.76682],[80.13943,22.76548],[80.12671,22.76554],[80.10509,22.76858],[80.10047,22.76907],[80.09639,22.76907],[80.09456,22.76865],[80.09195,22.76798],[80.08529,22.76548],[80.08188,22.76463],[80.06673,22.76456],[80.06111,22.76658],[80.05691,22.76889],[80.05234,22.77193],[80.04735,22.77467],[80.04279,22.7771],[80.03236,22.78217],[80.02937,22.78442],[80.02639,22.78801],[80.02505,22.79117],[80.02335,22.79628],[80.01987,22.80471],[80.01634,22.81128],[80.0098,22.82278],[80.006,22.82745],[80.00001,22.82959],[79.99489,22.83003],[79.98988,22.83019],[79.98311,22.83451],[79.98037,22.83839],[79.96508,22.84885],[79.95541,22.85253],[79.94919,22.85415],[79.94504,22.85645],[79.93629,22.86289],[79.93306,22.86681],[79.93122,22.87877],[79.93122,22.88591],[79.9326,22.89719],[79.93352,22.90801],[79.9326,22.92044],[79.93076,22.9278],[79.92649,22.93624],[79.92474,22.94038],[79.92108,22.94308],[79.91792,22.94441],[79.91717,22.94491],[79.91639,22.94623],[79.91599,22.94823],[79.91154,22.95397],[79.90934,22.95799],[79.90848,22.96096],[79.90785,22.96533],[79.90651,22.97068],[79.90549,22.9744],[79.90242,22.98291],[79.9019,22.98505],[79.90181,22.98699],[79.90206,22.99124],[79.9022,22.99188],[79.90298,22.99296],[79.90361,22.99334],[79.90483,22.99367],[79.90904,22.99542],[79.91232,22.99638],[79.91582,22.99842],[79.92001,23.00249],[79.92111,23.00414],[79.92206,23.0065],[79.9229,23.00761],[79.9268,23.01143],[79.92832,23.01342],[79.92923,23.01546],[79.92927,23.01827],[79.92903,23.01998],[79.92799,23.02291],[79.92782,23.02383],[79.92782,23.02563],[79.92808,23.02791],[79.92896,23.03084],[79.93051,23.03465],[79.9321,23.03722],[79.93455,23.04043],[79.93933,23.04587],[79.9413,23.04867],[79.94248,23.04982],[79.94535,23.05494],[79.94682,23.05714],[79.94942,23.05961],[79.9516,23.06101],[79.95308,23.0617],[79.95612,23.06273],[79.96202,23.06536],[79.96406,23.06684],[79.96466,23.06768],[79.96495,23.06842],[79.96496,23.06964],[79.96463,23.07206],[79.96399,23.07391],[79.96354,23.0747],[79.96104,23.07637],[79.95902,23.07822],[79.9572,23.08068],[79.95714,23.08248],[79.95657,23.08341],[79.95245,23.08757],[79.94952,23.08988],[79.94836,23.09113],[79.94792,23.09182],[79.94726,23.09227],[79.94559,23.09463],[79.94449,23.09688],[79.94299,23.09891],[79.94042,23.1016],[79.93817,23.1036],[79.93738,23.10383],[79.93653,23.10398],[79.93461,23.10392],[79.93375,23.10365],[79.93291,23.10303],[79.93178,23.103],[79.92894,23.10343],[79.92758,23.10386],[79.92566,23.10509],[79.92479,23.1054],[79.91957,23.10609],[79.9179,23.10605],[79.91462,23.10497],[79.91284,23.10482],[79.9118,23.10515],[79.9105,23.10625],[79.90915,23.10688],[79.90387,23.10764],[79.89972,23.10975],[79.89595,23.11132],[79.89382,23.11251],[79.89275,23.11282],[79.88846,23.11304],[79.88583,23.11279],[79.8815,23.11142],[79.87605,23.10867],[79.87364,23.10783],[79.87265,23.10767],[79.86888,23.10854],[79.86631,23.1089],[79.8636,23.10907],[79.85161,23.10911],[79.84866,23.10843],[79.84619,23.1066],[79.84465,23.1057],[79.84169,23.10517],[79.83904,23.10401],[79.838,23.10376],[79.83669,23.10371],[79.83535,23.10399],[79.83194,23.10386],[79.82935,23.10431],[79.82812,23.10484],[79.8277,23.10528],[79.82737,23.10859],[79.82722,23.10929],[79.82669,23.11029],[79.82613,23.11068],[79.82519,23.11098],[79.82438,23.11198],[79.82388,23.11292],[79.81985,23.11769],[79.81902,23.11851],[79.81848,23.11882],[79.81797,23.11886],[79.81781,23.11904],[79.81801,23.12224],[79.81776,23.12335],[79.81728,23.12391],[79.81526,23.12473],[79.81258,23.12552],[79.80974,23.12549],[79.80707,23.12568],[79.8018,23.12489],[79.80065,23.12508],[79.79881,23.1259],[79.79791,23.12663],[79.795,23.12847],[79.79431,23.12958],[79.79441,23.12982],[79.79488,23.13004],[79.79667,23.13005],[79.79685,23.13029],[79.79681,23.13098],[79.79704,23.13137],[79.7983,23.13187],[79.79935,23.13251],[79.79943,23.13333],[79.79842,23.13672],[79.79757,23.13751],[79.79687,23.13779],[79.79407,23.13819],[79.79204,23.13874],[79.791,23.13882],[79.79009,23.13877],[79.78764,23.13809],[79.78254,23.13624],[79.78,23.13505],[79.77857,23.134],[79.77827,23.13297],[79.77703,23.13207],[79.7748,23.13118],[79.7733,23.13036],[79.77069,23.1286],[79.768,23.12721],[79.76457,23.12611],[79.76181,23.12474],[79.75589,23.121],[79.75112,23.11818],[79.74754,23.11631],[79.74484,23.11513],[79.74242,23.11436],[79.73931,23.11309],[79.72786,23.10946],[79.72273,23.10864],[79.72101,23.10815],[79.71968,23.10816],[79.71606,23.10876],[79.70965,23.11084],[79.70815,23.11122],[79.70733,23.11116],[79.7064,23.11077],[79.70475,23.10931],[79.7036,23.10899],[79.70201,23.10804],[79.70095,23.10701],[79.69824,23.10369],[79.69696,23.10267],[79.6938,23.10103],[79.69235,23.10055],[79.68965,23.10055],[79.68787,23.1009],[79.68554,23.10156],[79.68356,23.10233],[79.68189,23.10319],[79.67983,23.10377],[79.67829,23.1039],[79.67743,23.10372],[79.67355,23.10089],[79.67203,23.09924],[79.67161,23.0984],[79.67125,23.09654],[79.6703,23.09419],[79.6696,23.09302],[79.66832,23.09159],[79.66731,23.09111],[79.6665,23.09093],[79.66434,23.09091],[79.66329,23.09116],[79.66193,23.09183],[79.66063,23.09275],[79.6589,23.09443],[79.65653,23.09725],[79.65379,23.10263],[79.65258,23.10454],[79.65165,23.10538],[79.65033,23.10622],[79.64919,23.10665],[79.6461,23.10674],[79.64452,23.10653],[79.64294,23.10595],[79.64094,23.1049],[79.63946,23.10447],[79.63811,23.10436],[79.63708,23.10452],[79.63076,23.10627],[79.62892,23.10656],[79.62389,23.10632],[79.61837,23.10569],[79.61047,23.10596],[79.60575,23.10673],[79.60346,23.10738],[79.60148,23.10809],[79.59629,23.11075],[79.59475,23.11138],[79.59253,23.11158],[79.58702,23.11095],[79.58311,23.11138],[79.58107,23.11201],[79.58037,23.1124],[79.58003,23.1128],[79.57917,23.11457],[79.57884,23.1167],[79.57877,23.11997],[79.5783,23.12341],[79.57741,23.12807],[79.57709,23.12934],[79.57658,23.13035],[79.57586,23.13128],[79.57424,23.13289],[79.57237,23.13412],[79.56782,23.13617],[79.56622,23.13665],[79.56507,23.13673],[79.55831,23.13592],[79.5569,23.13593],[79.55553,23.13618],[79.54355,23.14006],[79.54115,23.14028],[79.53368,23.13993],[79.53251,23.14006],[79.52704,23.14117],[79.52045,23.14327],[79.5185,23.14362],[79.51485,23.14354],[79.51357,23.14323],[79.51109,23.142],[79.50752,23.1397],[79.50575,23.13822],[79.50139,23.13397],[79.49919,23.13104],[79.49718,23.12762],[79.49656,23.12711],[79.49492,23.12617],[79.4906,23.12455],[79.4881,23.12336],[79.4854,23.12167],[79.48023,23.1189],[79.47673,23.1159],[79.47126,23.1096],[79.46941,23.1071],[79.46681,23.10469],[79.46419,23.10115],[79.46089,23.0986],[79.45899,23.0976],[79.45744,23.0971],[79.45489,23.09732],[79.45348,23.09768],[79.45176,23.09845],[79.44624,23.10217],[79.44425,23.10387],[79.44151,23.10668],[79.43994,23.10764],[79.43844,23.10817],[79.43696,23.10854],[79.43541,23.10866],[79.43311,23.10849],[79.4305,23.108],[79.42812,23.10735],[79.42583,23.10651],[79.42235,23.10487],[79.42127,23.10456],[79.41539,23.10389],[79.41235,23.10327],[79.40592,23.10012],[79.40497,23.09981],[79.40352,23.09972],[79.40234,23.0999],[79.40045,23.10036],[79.3988,23.101],[79.39746,23.10175],[79.39641,23.10259],[79.3893,23.11001],[79.38801,23.11122],[79.3871,23.11179],[79.3846,23.11282],[79.38204,23.11345],[79.38022,23.11363],[79.3786,23.11355],[79.37683,23.11307],[79.37386,23.11117],[79.37195,23.10964],[79.36888,23.1075],[79.36551,23.10569],[79.36428,23.10524],[79.36197,23.10512],[79.35973,23.10525],[79.353,23.10646],[79.34883,23.107],[79.3469,23.10701],[79.34634,23.10635],[79.34302,23.10435],[79.34028,23.10188],[79.33902,23.10134],[79.33377,23.09989],[79.33038,23.09825],[79.3273,23.09813],[79.32391,23.09832],[79.31843,23.09945],[79.31367,23.10006],[79.31115,23.10006],[79.31056,23.09987],[79.3097,23.09927],[79.30929,23.09742],[79.30891,23.09649],[79.30842,23.09592],[79.30749,23.09533],[79.30647,23.09483],[79.30292,23.09371],[79.29866,23.09166],[79.29697,23.09103],[79.29498,23.09049],[79.29262,23.09008],[79.28773,23.08958],[79.2831,23.08972],[79.27363,23.09429],[79.27211,23.09482],[79.2712,23.09492],[79.26969,23.09481],[79.26871,23.09374],[79.26768,23.09347],[79.26369,23.09339],[79.25835,23.09394],[79.25741,23.09386],[79.25514,23.09307],[79.25306,23.0921],[79.25076,23.09074],[79.24752,23.08816],[79.24277,23.08272],[79.2421,23.08213],[79.23887,23.08024],[79.23743,23.07993],[79.23351,23.07974],[79.22909,23.08023],[79.21957,23.07979],[79.21575,23.07904],[79.21296,23.07827],[79.21151,23.07778],[79.20686,23.07555],[79.20442,23.07474],[79.19493,23.07276],[79.19305,23.07246],[79.18995,23.07232],[79.18823,23.07195],[79.18463,23.07098],[79.18038,23.06959],[79.17704,23.06874],[79.17569,23.06856],[79.17187,23.06846],[79.15897,23.0683],[79.1548,23.06797],[79.1513,23.06703],[79.14921,23.06706],[79.14854,23.06732],[79.14793,23.06795],[79.14732,23.07012],[79.14544,23.07286],[79.14437,23.07403],[79.14406,23.07415],[79.14219,23.07419],[79.14019,23.07464],[79.13828,23.07481],[79.13617,23.07558],[79.1326,23.07756],[79.13006,23.0777],[79.12826,23.07762],[79.12676,23.07731],[79.12385,23.07603],[79.12157,23.07436],[79.11755,23.07075],[79.11605,23.06901],[79.11405,23.06585],[79.11056,23.06189],[79.10368,23.05484],[79.09869,23.04738],[79.09608,23.04433],[79.09407,23.04247],[79.09093,23.04116],[79.08877,23.03929],[79.08859,23.03797],[79.08877,23.03663],[79.08915,23.0358],[79.09024,23.03483],[79.09153,23.03282],[79.09222,23.03088],[79.09249,23.0285],[79.09271,23.02365],[79.09231,23.02021],[79.09118,23.01697],[79.09028,23.01568],[79.08986,23.01516],[79.08835,23.01425],[79.08646,23.01279],[79.08522,23.01221],[79.08337,23.01166],[79.07593,23.01038],[79.07357,23.0105],[79.07071,23.01145],[79.06921,23.01215],[79.0638,23.0165],[79.0619,23.01762],[79.0602,23.01812],[79.05882,23.0183],[79.05622,23.0181],[79.04947,23.01658],[79.04599,23.01654],[79.04471,23.01668],[79.04058,23.01783],[79.03784,23.01838],[79.03621,23.01835],[79.03543,23.01849],[79.03491,23.01882],[79.03481,23.01971],[79.03438,23.0206],[79.03346,23.02148],[79.03179,23.02255],[79.03082,23.02291],[79.02967,23.02302],[79.02903,23.02378],[79.02829,23.02428],[79.02814,23.02523],[79.0276,23.02647],[79.02616,23.0282],[79.02495,23.02907],[79.02366,23.02942],[79.02028,23.02895],[79.01895,23.02897],[79.01657,23.02985],[79.01371,23.03042],[79.00937,23.03022],[79.00801,23.03083],[79.00608,23.03197],[79.00516,23.03268],[79.00318,23.03496],[79.00242,23.03559],[79.00116,23.03625],[79.00047,23.0364],[78.99924,23.03584],[78.99767,23.03566],[78.9959,23.03591],[78.99405,23.03647],[78.99312,23.037],[78.9921,23.03793],[78.99065,23.03855],[78.98992,23.03904],[78.98841,23.04094],[78.98542,23.04286],[78.98385,23.04463],[78.98248,23.04573],[78.98122,23.04645],[78.98044,23.04748],[78.98002,23.04876],[78.97999,23.04935],[78.98043,23.05125],[78.98042,23.05198],[78.97961,23.05495],[78.97924,23.05583],[78.97897,23.0561],[78.978,23.05641],[78.97696,23.05636],[78.97473,23.05575],[78.97351,23.0556],[78.96954,23.05625],[78.9678,23.05604],[78.9646,23.05489],[78.96188,23.05436],[78.96032,23.05428],[78.95836,23.05376],[78.95421,23.05222],[78.95321,23.05152],[78.95139,23.05079],[78.94829,23.05029],[78.94664,23.04948],[78.94557,23.0492],[78.94292,23.04933],[78.94182,23.04981],[78.93811,23.05231],[78.93508,23.05301],[78.93363,23.05296],[78.93274,23.05254],[78.93193,23.05188],[78.93064,23.04933],[78.92955,23.04865],[78.92651,23.04895],[78.91805,23.05103],[78.91372,23.0519],[78.90617,23.05285],[78.89807,23.05337],[78.8958,23.05335],[78.88785,23.05283],[78.87681,23.05364],[78.87331,23.05362],[78.86513,23.05223],[78.86402,23.05173],[78.86277,23.05088],[78.8622,23.05026],[78.86018,23.04698],[78.85868,23.04574],[78.85505,23.04378],[78.85309,23.04381],[78.85186,23.04415],[78.84558,23.04725],[78.84211,23.0484],[78.84004,23.04887],[78.83367,23.04967],[78.83258,23.04997],[78.83154,23.05037],[78.83022,23.05114],[78.82871,23.05237],[78.82381,23.05534],[78.82224,23.05595],[78.81993,23.05639],[78.81814,23.05655],[78.8158,23.05639],[78.81038,23.05544],[78.80665,23.0541],[78.79893,23.05015],[78.7983,23.04967],[78.79715,23.04834],[78.79565,23.04752],[78.79453,23.04714],[78.78938,23.04745],[78.78719,23.04797],[78.78544,23.04875],[78.78285,23.05031],[78.77927,23.05135],[78.77682,23.05167],[78.77526,23.05108],[78.77449,23.05058],[78.77279,23.04854],[78.77189,23.04773],[78.76944,23.04631],[78.76869,23.04607],[78.76308,23.04587],[78.76142,23.04613],[78.75878,23.04704],[78.75741,23.04811],[78.75632,23.04923],[78.75475,23.05138],[78.7529,23.0573],[78.752,23.05899],[78.75087,23.06035],[78.74806,23.06219],[78.74697,23.06252],[78.74477,23.06278],[78.74215,23.06217],[78.73961,23.06073],[78.73799,23.05925],[78.73667,23.05755],[78.73587,23.05627],[78.73548,23.05479],[78.7351,23.05195],[78.73491,23.04872],[78.7338,23.04519],[78.73313,23.04426],[78.73268,23.04389],[78.73031,23.04279],[78.72794,23.0424],[78.72621,23.04242],[78.71873,23.04295],[78.71654,23.04287],[78.7099,23.04216],[78.70545,23.04084],[78.69552,23.03602],[78.69262,23.03523],[78.69026,23.03523],[78.6862,23.03598],[78.67937,23.03903],[78.67819,23.03933],[78.67515,23.03919],[78.67088,23.03815],[78.66837,23.03721],[78.66236,23.03343],[78.65917,23.02942],[78.65494,23.02366],[78.65102,23.0214],[78.64783,23.02066],[78.6453,23.02094],[78.64308,23.02156],[78.64085,23.02253],[78.63854,23.02387],[78.63656,23.0258],[78.63411,23.02716],[78.63271,23.0282],[78.63183,23.02915],[78.62999,23.03046],[78.62837,23.03087],[78.62588,23.03124],[78.62219,23.03117],[78.61947,23.0305],[78.61802,23.02981],[78.61703,23.02896],[78.61508,23.02526],[78.61358,23.02282],[78.61231,23.02026],[78.61145,23.01895],[78.61019,23.01754],[78.6089,23.01648],[78.60498,23.01398],[78.6027,23.01278],[78.59846,23.01108],[78.59539,23.01032],[78.58905,23.0099],[78.58522,23.01036],[78.57959,23.01244],[78.57556,23.01435],[78.57031,23.01599],[78.56553,23.01694],[78.55712,23.01793],[78.55031,23.01733],[78.54741,23.01652],[78.54406,23.01518],[78.53482,23.01087],[78.53124,23.00974],[78.52827,23.00972],[78.5235,23.01018],[78.5146,23.01161],[78.51061,23.01161],[78.5092,23.01131],[78.50729,23.01064],[78.5,23.0073],[78.49798,23.00687],[78.49508,23.00586],[78.49285,23.00562],[78.4876,23.00589],[78.47978,23.00655],[78.47734,23.00691],[78.47342,23.00685],[78.47153,23.00672],[78.46992,23.00635],[78.46424,23.00441],[78.45971,23.0018],[78.45799,23.00047],[78.44712,22.99047],[78.44386,22.98778],[78.43962,22.98474],[78.4376,22.98296],[78.43522,22.98064],[78.4305,22.97561],[78.42587,22.97233],[78.42225,22.97075],[78.4199,22.97003],[78.41705,22.96959],[78.41431,22.96959],[78.41118,22.96912],[78.40773,22.96842],[78.40401,22.9674],[78.40042,22.96576],[78.39724,22.96382],[78.38984,22.95753],[78.38562,22.95163],[78.38234,22.94495],[78.37905,22.93906],[78.37622,22.93589],[78.37021,22.93159],[78.36566,22.92908],[78.36203,22.92752],[78.35946,22.92607],[78.35673,22.92411],[78.35299,22.92088],[78.34886,22.91826],[78.34613,22.91703],[78.34451,22.91658],[78.33926,22.91775],[78.33251,22.91999],[78.3291,22.92026],[78.32631,22.92026],[78.32486,22.91976],[78.32263,22.91859],[78.3199,22.91658],[78.31076,22.90651],[78.30486,22.89714],[78.29965,22.8903],[78.29583,22.88725],[78.29289,22.88526],[78.29162,22.88371],[78.28919,22.87595],[78.28629,22.87041],[78.28356,22.86733],[78.28083,22.86566],[78.2788,22.86566],[78.27378,22.86847],[78.27141,22.87076],[78.26762,22.87279],[78.26331,22.87675],[78.25873,22.87719],[78.25573,22.87595],[78.25186,22.87481],[78.24481,22.87032],[78.242,22.86795],[78.23927,22.8668],[78.23733,22.86654],[78.23477,22.86654],[78.23354,22.86698],[78.23125,22.86935],[78.22747,22.87463],[78.22423,22.88028],[78.22312,22.8831],[78.22238,22.8874],[78.22127,22.89118],[78.21993,22.8937],[78.21808,22.89562],[78.21563,22.89711],[78.21133,22.89748],[78.20621,22.8974],[78.20354,22.89703],[78.20058,22.89629],[78.19806,22.89466],[78.19583,22.89296],[78.19234,22.88992],[78.18819,22.8854],[78.18686,22.88339],[78.18582,22.88095],[78.18522,22.87791],[78.18419,22.8742],[78.18293,22.87094],[78.18189,22.86931],[78.17989,22.86835],[78.17722,22.86753],[78.17054,22.86635],[78.16476,22.86494],[78.16264,22.86458],[78.15981,22.86367],[78.15699,22.86175],[78.15448,22.85882],[78.14984,22.85414],[78.14531,22.84865],[78.1435,22.84684],[78.13476,22.84151],[78.13155,22.84002],[78.12935,22.83861],[78.12645,22.83639],[78.12491,22.83441],[78.12408,22.83296],[78.12361,22.83142],[78.12346,22.8279],[78.12608,22.81503],[78.12733,22.81101],[78.12881,22.80796],[78.12919,22.80628],[78.1294,22.80453],[78.12896,22.80201],[78.1266,22.79689],[78.12433,22.79385],[78.1227,22.79222],[78.12002,22.79067],[78.11587,22.78933],[78.11084,22.78861],[78.10594,22.78832],[78.1018,22.7887],[78.0984,22.78979],[78.08982,22.79481],[78.08459,22.79964],[78.07682,22.8058],[78.07001,22.81168],[78.06626,22.814],[78.06071,22.81559],[78.05786,22.81553],[78.05433,22.81406],[78.04498,22.80867],[78.03574,22.80208],[78.03262,22.80007],[78.03122,22.79937],[78.03021,22.79913],[78.02892,22.79918],[78.02683,22.79988],[78.02466,22.80107],[78.01624,22.80848],[78.01183,22.81284],[78.00594,22.82034],[78.00417,22.82216],[78.00313,22.82289],[78.00001,22.82437],[77.99639,22.82558],[77.98815,22.82584],[77.98066,22.82638],[77.97847,22.82662],[77.9734,22.82781],[77.97172,22.82782],[77.9654,22.82726],[77.96152,22.82715],[77.95942,22.82675],[77.95551,22.82528],[77.95451,22.82478],[77.95217,22.82319],[77.94949,22.82093],[77.94391,22.81477],[77.94264,22.81302],[77.94044,22.81125],[77.9347,22.80772],[77.9323,22.80654],[77.92851,22.80543],[77.92688,22.80539],[77.92554,22.80566],[77.92386,22.8062],[77.92198,22.80727],[77.92094,22.80799],[77.9198,22.80912],[77.91786,22.81201],[77.9154,22.81728],[77.91474,22.81898],[77.91439,22.82169],[77.91481,22.82361],[77.9156,22.82503],[77.91813,22.82823],[77.92363,22.83317],[77.92844,22.83627],[77.93069,22.8374],[77.93116,22.83779],[77.93207,22.83895],[77.93285,22.84109],[77.93277,22.84473],[77.93201,22.84725],[77.92861,22.85278],[77.92569,22.85648],[77.92376,22.85848],[77.92118,22.85935],[77.91906,22.85957],[77.91698,22.85941],[77.91521,22.85912],[77.91301,22.85842],[77.91122,22.8574],[77.90784,22.85392],[77.90546,22.85174],[77.90187,22.84871],[77.89823,22.84535],[77.89367,22.84176],[77.88201,22.83094],[77.87798,22.82788],[77.87698,22.82739],[77.87589,22.82743],[77.8744,22.82789],[77.86939,22.83012],[77.86676,22.83191],[77.86466,22.8338],[77.86349,22.8351],[77.86241,22.83762],[77.86219,22.83967],[77.86275,22.84429],[77.86326,22.84612],[77.86543,22.85121],[77.86673,22.85315],[77.86933,22.85577],[77.87158,22.85958],[77.87226,22.86158],[77.87213,22.86306],[77.8718,22.86403],[77.87129,22.86489],[77.87034,22.86599],[77.86823,22.86784],[77.86455,22.86938],[77.8593,22.87097],[77.85545,22.87258],[77.84997,22.87308],[77.84728,22.87291],[77.84521,22.87244],[77.84257,22.87145],[77.83928,22.86927],[77.83697,22.86735],[77.83316,22.86324],[77.82837,22.8577],[77.82307,22.85319],[77.82139,22.8515],[77.82016,22.85062],[77.81853,22.84961],[77.81337,22.84744],[77.81041,22.84651],[77.8076,22.84585],[77.80326,22.84394],[77.79855,22.84138],[77.79698,22.84025],[77.79575,22.83884],[77.79445,22.83657],[77.79189,22.83072],[77.78735,22.82353],[77.78189,22.8126],[77.77845,22.80245],[77.77869,22.794],[77.77783,22.79187],[77.77671,22.79086],[77.77205,22.78831],[77.76713,22.78449],[77.75765,22.77668],[77.75465,22.77393],[77.7506,22.77068],[77.74427,22.76376],[77.74081,22.76122],[77.73745,22.75929],[77.73428,22.75809],[77.73207,22.7575],[77.73007,22.75725],[77.72861,22.75729],[77.72657,22.758],[77.72511,22.75904],[77.72273,22.76159],[77.71665,22.76488],[77.71177,22.76684],[77.70265,22.76816],[77.70032,22.76829],[77.69769,22.76816],[77.69464,22.76762],[77.69331,22.76704],[77.68989,22.76487],[77.68543,22.75974],[77.68305,22.75628],[77.68099,22.7518],[77.67937,22.74726],[77.67854,22.74336],[77.67828,22.74271],[77.67772,22.74226],[77.67736,22.74171],[77.67707,22.7409],[77.67676,22.73754],[77.67632,22.73692],[77.67186,22.73355],[77.66921,22.73216],[77.66629,22.73163],[77.66216,22.73168],[77.65882,22.73279],[77.64335,22.74227],[77.64102,22.74402],[77.63784,22.74556],[77.63434,22.74688],[77.63121,22.74715],[77.6284,22.74715],[77.62601,22.74657],[77.62358,22.74545],[77.6178,22.741],[77.61467,22.73697],[77.61244,22.73284],[77.60984,22.72598],[77.60655,22.72037],[77.60284,22.71486],[77.59855,22.70918],[77.5943,22.70463],[77.59213,22.70155],[77.59113,22.69882],[77.5899,22.69195],[77.5887,22.68889],[77.58453,22.68073],[77.58205,22.67708],[77.58124,22.67544],[77.58062,22.6747],[77.57952,22.67395],[77.57408,22.67134],[77.57001,22.66976],[77.56394,22.66816],[77.56036,22.66781],[77.55624,22.66787],[77.54816,22.66922],[77.54514,22.66953],[77.53526,22.66943],[77.52799,22.66792],[77.52421,22.6666],[77.52282,22.66584],[77.5201,22.66362],[77.5188,22.66207],[77.5172,22.6584],[77.5171,22.65497],[77.51662,22.65373],[77.51585,22.6529],[77.51401,22.65191],[77.51192,22.65023],[77.50932,22.64861],[77.5051,22.64744],[77.49768,22.64493],[77.49429,22.64401],[77.4913,22.64345],[77.48935,22.64398],[77.4855,22.64553],[77.47979,22.64725],[77.47584,22.64752],[77.46839,22.64734],[77.46555,22.64676],[77.45896,22.64465],[77.4523,22.64134],[77.44647,22.638],[77.44149,22.63408],[77.43483,22.62942],[77.43331,22.62745],[77.43239,22.62648],[77.43117,22.62556],[77.42809,22.62499],[77.42445,22.62456],[77.42188,22.62346],[77.41985,22.62171],[77.4148,22.61832],[77.4115,22.61658],[77.40625,22.61546],[77.40325,22.614],[77.3996,22.6136],[77.39778,22.6124],[77.39364,22.61055],[77.39056,22.60957],[77.38262,22.60889],[77.37259,22.60857],[77.36294,22.60613],[77.36047,22.60584],[77.35839,22.60453],[77.35536,22.60216],[77.35497,22.6017],[77.35215,22.59666],[77.34869,22.58869],[77.34439,22.57709],[77.34157,22.57039],[77.33974,22.56789],[77.33729,22.56488],[77.33453,22.5625],[77.33083,22.56076],[77.3277,22.55897],[77.32223,22.55668],[77.31934,22.55624],[77.31731,22.55626],[77.31112,22.55737],[77.3001,22.56026],[77.29718,22.56087],[77.29328,22.56082],[77.29148,22.56099],[77.29069,22.56128],[77.29011,22.562],[77.28925,22.56358],[77.28764,22.56825],[77.28318,22.57845],[77.2812,22.58413],[77.27927,22.59053],[77.27824,22.59506],[77.2776,22.59712],[77.27564,22.60089],[77.2712,22.60629],[77.26924,22.60702],[77.26715,22.6075],[77.26514,22.60739],[77.26078,22.60587],[77.25861,22.60481],[77.25627,22.60333],[77.25333,22.60037],[77.24897,22.5956],[77.24218,22.58653],[77.23922,22.58344],[77.23218,22.57848],[77.22256,22.57126],[77.21976,22.56935],[77.21774,22.56841],[77.2148,22.56734],[77.21294,22.56714],[77.20981,22.56715],[77.20571,22.56757],[77.20022,22.56928],[77.18184,22.57747],[77.17363,22.58097],[77.17072,22.58199],[77.16803,22.58264],[77.1666,22.58282],[77.16274,22.58291],[77.16036,22.5828],[77.15835,22.58223],[77.15565,22.58077],[77.15413,22.57964],[77.15207,22.57686],[77.15128,22.57621],[77.14984,22.5754],[77.14539,22.57195],[77.14345,22.56903],[77.14329,22.56847],[77.14346,22.56665],[77.14327,22.56611],[77.14159,22.5636],[77.14012,22.56221],[77.1369,22.5599],[77.13272,22.55818],[77.13207,22.55764],[77.13178,22.5572],[77.13189,22.55466],[77.13152,22.55425],[77.12885,22.55345],[77.12648,22.55339],[77.12576,22.55307],[77.11566,22.54177],[77.11307,22.53932],[77.10985,22.53697],[77.10808,22.53538],[77.09778,22.52428],[77.09427,22.52102],[77.09105,22.51853],[77.08805,22.51404],[77.08373,22.50972],[77.08229,22.50879],[77.0799,22.50825],[77.07612,22.5082],[77.07374,22.50785],[77.05274,22.5],[77.03517,22.49601],[77.02996,22.495],[77.02364,22.49353],[77.01987,22.49288],[77.01669,22.49264],[77.01375,22.49261],[77.00871,22.49313],[77.00785,22.49356],[77.00648,22.49386],[77.00289,22.49392],[77.00067,22.49276],[76.99921,22.4925],[76.99724,22.49171],[76.99541,22.4914],[76.98966,22.49195],[76.98573,22.49166],[76.98267,22.49168],[76.97622,22.4905],[76.97282,22.49034],[76.95631,22.49204],[76.95277,22.49225],[76.94734,22.4921],[76.94631,22.49228],[76.94422,22.49298],[76.94161,22.49291],[76.94041,22.49283],[76.93597,22.49142],[76.92883,22.49069],[76.92165,22.4895],[76.91438,22.48763],[76.90573,22.48629],[76.90094,22.48505],[76.89929,22.48435],[76.89444,22.48178],[76.89227,22.48079],[76.88856,22.47941],[76.88654,22.47842],[76.88395,22.47687],[76.8793,22.4745],[76.87574,22.47213],[76.86475,22.46255],[76.86259,22.46019],[76.86153,22.45958],[76.86041,22.45924],[76.85932,22.45924],[76.85839,22.45893],[76.8543,22.45718],[76.84806,22.45519],[76.84541,22.45409],[76.84342,22.45354],[76.84147,22.45259],[76.83851,22.45151],[76.82503,22.44839],[76.82215,22.44737],[76.81978,22.4459],[76.81548,22.44195],[76.81276,22.43973],[76.8054,22.43468],[76.80024,22.43227],[76.79553,22.43055],[76.79323,22.42917],[76.79082,22.42653],[76.78967,22.42435],[76.78886,22.42125],[76.78863,22.41855],[76.78921,22.41476],[76.79127,22.40615],[76.79116,22.40168],[76.79058,22.39743],[76.78794,22.39048],[76.7861,22.38509],[76.78104,22.3751],[76.78024,22.37235],[76.78001,22.36914],[76.78035,22.36523],[76.77995,22.35877],[76.77615,22.34361],[76.7703,22.32823],[76.76224,22.31685],[76.75038,22.30501],[76.71954,22.27846],[76.70436,22.27041],[76.66309,22.24955],[76.64665,22.24193],[76.63332,22.23995],[76.62071,22.23953],[76.61231,22.23828],[76.59382,22.23408],[76.57813,22.23125],[76.57095,22.23109],[76.56193,22.23209],[76.55492,22.23309],[76.54907,22.23309],[76.54273,22.23275],[76.53538,22.23326],[76.52873,22.23455],[76.52315,22.23687],[76.51254,22.24171],[76.50919,22.24385],[76.50444,22.24766],[76.50155,22.25082],[76.50007,22.25333],[76.49913,22.25807],[76.49824,22.26127],[76.49603,22.26454],[76.49422,22.26823],[76.49165,22.27268],[76.48999,22.27615],[76.48833,22.27856],[76.48675,22.27992],[76.48351,22.28142],[76.48124,22.2821],[76.47691,22.28295],[76.47189,22.28437],[76.47003,22.28453],[76.46538,22.28574],[76.46269,22.28609],[76.46247,22.28619],[76.46237,22.28667],[76.46163,22.28765],[76.45977,22.28955],[76.45931,22.29038],[76.45901,22.2916],[76.46002,22.29307],[76.46113,22.29384],[76.46205,22.29524],[76.46567,22.29762],[76.46758,22.29908],[76.46925,22.30116],[76.46886,22.30297],[76.46899,22.30543],[76.46884,22.30664],[76.46821,22.30827],[76.46746,22.30921],[76.46711,22.31053],[76.46704,22.31167],[76.46762,22.31339],[76.46795,22.31517],[76.46788,22.31873],[76.46719,22.3197],[76.4655,22.32076],[76.46386,22.32335],[76.46184,22.32431],[76.4587,22.32447],[76.45613,22.32554],[76.45364,22.32592],[76.44513,22.32824],[76.44259,22.3296],[76.4386,22.33235],[76.43676,22.33317],[76.43369,22.33407],[76.43075,22.33459],[76.42753,22.33546],[76.42292,22.33694],[76.41875,22.33793],[76.41529,22.3384],[76.40783,22.33871],[76.4048,22.33849],[76.39455,22.33548],[76.37899,22.32602],[76.37272,22.32381],[76.36276,22.32059],[76.35667,22.31814],[76.35399,22.31652],[76.35267,22.31544],[76.35148,22.31419],[76.34974,22.31139],[76.34901,22.30948],[76.34793,22.30813],[76.34394,22.30574],[76.34235,22.30449],[76.34082,22.30365],[76.32572,22.29821],[76.31616,22.29705],[76.30981,22.29581],[76.30658,22.29454],[76.30495,22.29418],[76.3028,22.29402],[76.29831,22.29412],[76.29084,22.29361],[76.27893,22.29361],[76.2738,22.29286],[76.26522,22.29296],[76.26123,22.29216],[76.25392,22.29105],[76.25161,22.29106],[76.25025,22.29032],[76.2367,22.28638],[76.22411,22.28443],[76.21484,22.282],[76.20924,22.28094],[76.20761,22.28021],[76.20615,22.27899],[76.20477,22.27737],[76.20339,22.27299],[76.20282,22.27014],[76.20249,22.26259],[76.20262,22.25824],[76.20229,22.25442],[76.20132,22.25045],[76.19994,22.24671],[76.19823,22.24354],[76.19669,22.24143],[76.19197,22.23794],[76.18913,22.2364],[76.18498,22.23534],[76.17767,22.23502],[76.17507,22.23526],[76.17158,22.23599],[76.16873,22.23721],[76.16564,22.2394],[76.16442,22.24095],[76.16377,22.24353],[76.16342,22.244],[76.16269,22.24451],[76.16116,22.24515],[76.16044,22.24599],[76.1597,22.2475],[76.15829,22.25388],[76.15778,22.25483],[76.15729,22.25532],[76.15623,22.25588],[76.15132,22.25565],[76.14731,22.25604],[76.14671,22.2563],[76.1458,22.25727],[76.14532,22.25753],[76.1435,22.25769],[76.13983,22.25755],[76.13817,22.25709],[76.13592,22.25674],[76.13186,22.25674],[76.12525,22.25605],[76.12413,22.25582],[76.12136,22.2544],[76.11999,22.25415],[76.11509,22.25411],[76.11416,22.25389],[76.10914,22.25214],[76.1052,22.25125],[76.10159,22.24958],[76.0992,22.24919],[76.09732,22.24851],[76.09602,22.24821],[76.09201,22.24581],[76.08866,22.24426],[76.08134,22.23969],[76.08046,22.23901],[76.07885,22.23702],[76.07817,22.23649],[76.07229,22.23322],[76.07152,22.23249],[76.06987,22.23026],[76.06339,22.22762],[76.05951,22.22662],[76.05723,22.22638],[76.04743,22.22628],[76.04244,22.22671],[76.03471,22.22622],[76.03191,22.22584],[76.02734,22.22456],[76.02282,22.22294],[76.02082,22.22214],[76.01919,22.22102],[76.01629,22.21836],[76.01472,22.2165],[76.0123,22.21284],[76.01035,22.21061],[76.00797,22.20828],[76.00606,22.20667],[76.00003,22.20246],[75.99572,22.19995],[75.98991,22.19761],[75.97336,22.19435],[75.95581,22.18819],[75.95385,22.18794],[75.9515,22.1879],[75.94899,22.18807],[75.94631,22.18857],[75.94422,22.18941],[75.93807,22.19137],[75.93539,22.19179],[75.92818,22.1925],[75.91596,22.19242],[75.9118,22.1917],[75.87132,22.17961],[75.85637,22.17576],[75.85076,22.17526],[75.84641,22.17547],[75.83124,22.17852],[75.82065,22.18124],[75.81604,22.18199],[75.81152,22.1822],[75.80365,22.18145],[75.78828,22.17873],[75.78217,22.17793],[75.7774,22.17701],[75.77338,22.17567],[75.77129,22.17445],[75.76844,22.17199],[75.75851,22.16164],[75.75416,22.15867],[75.74942,22.15661],[75.74465,22.1554],[75.73384,22.15368],[75.72091,22.15335],[75.7108,22.15247],[75.70515,22.15251],[75.69888,22.15335],[75.68313,22.15859],[75.67217,22.16318],[75.66065,22.16888],[75.65495,22.17127],[75.65039,22.1721],[75.64198,22.17231],[75.63753,22.17173],[75.62937,22.17022],[75.61408,22.16838],[75.59617,22.16838],[75.58415,22.1678],[75.56656,22.16784],[75.56116,22.16884],[75.55718,22.17001],[75.55459,22.17026],[75.55195,22.17022],[75.55124,22.16976],[75.55024,22.16846],[75.54818,22.16518],[75.54802,22.16475],[75.54843,22.16351],[75.54831,22.16285],[75.54744,22.16193],[75.54522,22.16102],[75.54248,22.15806],[75.54182,22.15783],[75.5405,22.15773],[75.53077,22.15822],[75.5213,22.1598],[75.51801,22.15987],[75.51345,22.15914],[75.50517,22.15639],[75.50308,22.15585],[75.49363,22.15442],[75.48881,22.15286],[75.48657,22.15232],[75.48375,22.15205],[75.47895,22.15226],[75.47342,22.15288],[75.46902,22.15297],[75.46175,22.15245],[75.44727,22.14943],[75.42245,22.14517],[75.40141,22.13715],[75.39814,22.13625],[75.39461,22.13552],[75.39203,22.13552],[75.38945,22.1359],[75.38635,22.13681],[75.38125,22.13971],[75.37996,22.14065],[75.37698,22.1416],[75.37518,22.14186],[75.37298,22.1419],[75.36026,22.14056],[75.35217,22.14],[75.32993,22.13741],[75.32403,22.13707],[75.3136,22.13617],[75.31283,22.13599],[75.31222,22.13565],[75.30864,22.13306],[75.30515,22.13116],[75.30097,22.12923],[75.29705,22.12716],[75.2884,22.12467],[75.28384,22.12406],[75.27917,22.12393],[75.25302,22.12544],[75.25022,22.12544],[75.24695,22.12518],[75.23891,22.1238],[75.23091,22.12221],[75.22488,22.12057],[75.21819,22.11837],[75.21363,22.11639],[75.20791,22.113],[75.19966,22.10781],[75.19622,22.10631],[75.19226,22.10519],[75.18838,22.10437],[75.17687,22.10407],[75.1655,22.10411],[75.15252,22.10247],[75.14473,22.10243],[75.13883,22.10204],[75.13431,22.10135],[75.11694,22.09816],[75.1,22.09433],[75.09548,22.09364],[75.09148,22.09424],[75.08823,22.09454],[75.06329,22.09459],[75.05836,22.09415],[75.05307,22.09329],[75.04721,22.092],[75.03959,22.09058],[75.02808,22.08907],[75.01744,22.08846],[75.00791,22.08752],[74.98831,22.08656],[74.98387,22.08597],[74.97833,22.08559],[74.97254,22.08491],[74.97068,22.08462],[74.96616,22.08335],[74.96109,22.08259],[74.94803,22.08263],[74.94099,22.08358],[74.92333,22.08445],[74.91619,22.08407],[74.91087,22.08297],[74.89047,22.07976],[74.88874,22.07976],[74.88688,22.0795],[74.87704,22.07672],[74.87395,22.07562],[74.8693,22.07346],[74.84655,22.06446],[74.84343,22.0637],[74.83924,22.06319],[74.83358,22.06306],[74.82236,22.0647],[74.8138,22.06758],[74.79427,22.07619],[74.79092,22.07742],[74.78595,22.07884],[74.77637,22.07769],[74.77268,22.07659],[74.76493,22.0733],[74.75332,22.06988],[74.75146,22.06912],[74.73767,22.06202],[74.73464,22.06062],[74.72952,22.05856],[74.72057,22.0564],[74.71771,22.05557],[74.70695,22.0531],[74.69501,22.04858],[74.69288,22.04718],[74.68676,22.04236],[74.68279,22.03829],[74.68116,22.0374],[74.6781,22.0363],[74.67245,22.03504],[74.66852,22.0347],[74.66576,22.0347],[74.64073,22.03643],[74.63737,22.03626],[74.63554,22.03586],[74.62646,22.0332],[74.62416,22.03217],[74.61271,22.02775],[74.60582,22.02642],[74.6007,22.02509],[74.58971,22.02319],[74.58575,22.02322],[74.58449,22.02302],[74.5743,22.02292],[74.56796,22.02232],[74.5638,22.02232],[74.56111,22.02309],[74.56021,22.02355],[74.55525,22.02857],[74.54871,22.03706],[74.54489,22.04298],[74.5412,22.04798],[74.54006,22.04914],[74.53764,22.0507],[74.53577,22.05133],[74.53035,22.05223],[74.5275,22.05221],[74.51527,22.04844],[74.49899,22.04423],[74.48536,22.04262],[74.47521,22.04082],[74.45057,22.03507],[74.42713,22.02912],[74.41611,22.02547],[74.40985,22.0241],[74.40193,22.02305],[74.39499,22.02181],[74.38586,22.01851],[74.38233,22.01406],[74.37856,22.00558],[74.35301,21.97936],[74.34738,21.97626],[74.33692,21.97441],[74.31927,21.97354],[74.30478,21.97032],[74.29995,21.9684],[74.29685,21.96543],[74.29463,21.95931],[74.29165,21.94431],[74.28899,21.93929],[74.28608,21.93632],[74.28236,21.93465],[74.27617,21.93354],[74.27041,21.93292],[74.24047,21.93111],[74.22518,21.92851],[74.21651,21.92765],[74.1928,21.92598],[74.19117,21.92637],[74.18927,21.92654],[74.18625,21.92744],[74.18143,21.9302],[74.17957,21.93146],[74.16557,21.94523],[74.16086,21.94835],[74.15719,21.95005],[74.15506,21.95081],[74.15101,21.95113],[74.14381,21.95093],[74.13283,21.94992],[74.12431,21.9484],[74.1199,21.94685],[74.11157,21.94529],[74.09824,21.93956],[74.08753,21.93578],[74.07044,21.93167],[74.05639,21.92765],[74.04996,21.92492],[74.04157,21.92103],[74.03646,21.9182],[74.03543,21.91728],[74.03438,21.91537],[74.02807,21.91225],[74.02674,21.91119],[74.024,21.90976],[74.01404,21.90525],[73.99954,21.89828],[73.97325,21.88722],[73.94866,21.87529],[73.94107,21.87137],[73.93416,21.8668],[73.92575,21.86173],[73.91786,21.85962],[73.90199,21.85732],[73.89015,21.85729],[73.88646,21.85501],[73.88262,21.85029],[73.87958,21.84598],[73.87394,21.84224],[73.87107,21.84079],[73.86787,21.84052],[73.86549,21.84067],[73.8596,21.84246],[73.85245,21.84384],[73.8455,21.84384],[73.84037,21.84307],[73.8324,21.84298],[73.82646,21.84222],[73.81081,21.83895],[73.80896,21.8376],[73.80618,21.83456],[73.80432,21.83176],[73.80208,21.82797],[73.79914,21.82636],[73.79538,21.82499],[73.79245,21.82268],[73.78753,21.82161],[73.78376,21.82158],[73.7794,21.82215],[73.77561,21.82358],[73.77178,21.82669],[73.77016,21.82775],[73.74568,21.83035],[73.74371,21.83072],[73.74148,21.83187],[73.74043,21.8314],[73.73874,21.83111],[73.73711,21.83055],[73.73633,21.83046],[73.73481,21.8297],[73.73236,21.8297],[73.72938,21.83142],[73.72499,21.83327],[73.72131,21.83518],[73.7189,21.83659],[73.71669,21.83866],[73.71409,21.84049],[73.70996,21.84234],[73.7034,21.84835],[73.70146,21.85107],[73.69793,21.85417],[73.69512,21.85852],[73.69378,21.86266],[73.69322,21.86751],[73.69053,21.87174],[73.68677,21.87693],[73.68393,21.87919],[73.68,21.88187],[73.67619,21.88372],[73.67269,21.88515],[73.6679,21.88599],[73.65936,21.88474],[73.65501,21.88534],[73.65155,21.88551],[73.64888,21.8865],[73.63936,21.88783],[73.63196,21.88985],[73.62416,21.89127],[73.61531,21.89426],[73.60989,21.89589],[73.60512,21.89805],[73.60228,21.90072],[73.59883,21.90549],[73.59617,21.91175],[73.59296,21.92315],[73.59145,21.94111],[73.59084,21.94339],[73.5882,21.94647],[73.58655,21.94793],[73.58313,21.95049],[73.58135,21.95135],[73.57829,21.95247],[73.57286,21.95338],[73.57018,21.95401],[73.56586,21.95641],[73.55207,21.96801],[73.55075,21.96982],[73.54982,21.97229],[73.5477,21.97578],[73.5446,21.97816],[73.5409,21.97964],[73.53617,21.98024],[73.53082,21.97876],[73.52811,21.9773],[73.5186,21.9678],[73.51549,21.96527],[73.50814,21.96274],[73.50283,21.96323],[73.4976,21.96461],[73.492,21.9672],[73.48581,21.96919],[73.48168,21.97146],[73.47939,21.97298],[73.47762,21.97474],[73.47585,21.97608],[73.47299,21.97773],[73.46779,21.98174],[73.46448,21.98304],[73.45877,21.98264],[73.45159,21.98267],[73.44792,21.98194],[73.44372,21.97954],[73.4404,21.97588],[73.43986,21.97403],[73.4397,21.96764],[73.43926,21.95933],[73.44033,21.95388],[73.44216,21.94787],[73.44318,21.94314],[73.44308,21.94027],[73.44192,21.93568],[73.44011,21.93044],[73.4378,21.92539],[73.43591,21.92326],[73.43214,21.91966],[73.42528,21.91509],[73.41932,21.91074],[73.41123,21.90947],[73.40567,21.91025],[73.39954,21.91188],[73.3951,21.91463],[73.38919,21.91865],[73.38354,21.92201],[73.38068,21.92445],[73.37629,21.92777],[73.37221,21.92941],[73.36753,21.93075],[73.36042,21.92988],[73.35406,21.92685],[73.34965,21.92324],[73.34626,21.91913],[73.34466,21.91429],[73.34416,21.90935],[73.34422,21.90178],[73.34538,21.893],[73.34641,21.88684],[73.34624,21.88135],[73.34475,21.8781],[73.34087,21.87583],[73.33393,21.874],[73.32574,21.87514],[73.3182,21.87906],[73.3022,21.88921],[73.29728,21.8919],[73.29195,21.89595],[73.28458,21.90002],[73.27951,21.90447],[73.27522,21.90914],[73.27448,21.9117],[73.27451,21.91362],[73.27262,21.91882],[73.2705,21.92044],[73.26781,21.92374],[73.26547,21.92711],[73.26243,21.93002],[73.25769,21.9335],[73.25353,21.93554],[73.24901,21.93607],[73.24189,21.93408],[73.23466,21.92986],[73.22783,21.92348],[73.22259,21.91533],[73.22151,21.91072],[73.22178,21.90538],[73.22223,21.90059],[73.22461,21.89299],[73.22862,21.88673],[73.23445,21.87889],[73.23905,21.87363],[73.24524,21.86803],[73.24759,21.86513],[73.24891,21.8614],[73.24886,21.85778],[73.24753,21.85142],[73.24469,21.84348],[73.23789,21.83708],[73.2296,21.83037],[73.22317,21.82588],[73.2171,21.82307],[73.20832,21.82222],[73.20331,21.82217],[73.1973,21.82383],[73.19244,21.82622],[73.18102,21.83284],[73.17495,21.83854],[73.17182,21.84293],[73.15993,21.85667],[73.15395,21.86109],[73.14965,21.86348],[73.14648,21.86479],[73.14159,21.86516],[73.13745,21.8617],[73.13293,21.85558],[73.13003,21.85104],[73.12963,21.8468],[73.13093,21.84147],[73.1388,21.82459],[73.14011,21.82032],[73.13973,21.81661],[73.13829,21.81141],[73.13895,21.79993],[73.13806,21.77464],[73.13816,21.76412],[73.1376,21.75329],[73.13691,21.75003],[73.13558,21.74653],[73.12703,21.7367],[73.11813,21.72905],[73.11341,21.72463],[73.10492,21.71831],[73.09646,21.71489],[73.09392,21.71223],[73.08673,21.71028],[73.07723,21.70988],[73.07383,21.71171],[73.06779,21.71565],[73.06452,21.7192],[73.0611,21.72246],[73.05847,21.72443],[73.05599,21.72655],[73.05385,21.72581],[73.05174,21.72249],[73.04978,21.71989],[73.04583,21.71697],[73.04163,21.71324],[73.0328,21.70878],[73.01953,21.70298],[73.01054,21.69824],[73.00374,21.69286],[72.99863,21.68759],[72.99119,21.6821],[72.98506,21.67841],[72.97118,21.67576],[72.95317,21.67497],[72.93789,21.67463],[72.92664,21.67547],[72.92057,21.6765],[72.9172,21.67641],[72.91071,21.67526],[72.90733,21.67311],[72.90443,21.66903],[72.9005,21.66422],[72.89322,21.66127],[72.88338,21.6616],[72.86749,21.66429],[72.85985,21.66412],[72.84188,21.67123],[72.83554,21.6701],[72.80322,21.65724],[72.79371,21.65486],[72.77895,21.65558],[72.76515,21.65962],[72.74707,21.66605],[72.73049,21.67276],[72.71481,21.67184],[72.68782,21.66819]]},"properties":{"OBJECTID":1038,"River_Name":"Narmada River","Basin":"NARMADA","START_X":81.75829,"START_Y":22.67252,"River_Code":"12MP390U25319502","END_X":72.68782,"END_Y":21.66819,"Length":1375.735,"Shape_Leng":1375735.18209}}]}